CCSDS_OMM_VERS = 2.0
CREATION_DATE  = 
ORIGINATOR     = 

OBJECT_NAME    = SL-3 R/B
OBJECT_ID      = 1982-079B
CENTER_NAME    = EARTH
REF_FRAME      = TEME
TIME_SYSTEM    = UTC
MEAN_ELEMENT_THEORY = SGP/SGP4

EPOCH          = 2025-12-22T06:27:32.231520
MEAN_MOTION    = 15.23693454
ECCENTRICITY   = .00269859
INCLINATION    = 81.1481
RA_OF_ASC_NODE = 284.4276
ARG_OF_PERICENTER = 68.4770
MEAN_ANOMALY   = 291.9335

EPHEMERIS_TYPE = 0
CLASSIFICATION_TYPE = U
NORAD_CAT_ID   = 13403
ELEMENT_SET_NO = 999
REV_AT_EPOCH   = 36590
BSTAR          = .26143822E-3
MEAN_MOTION_DOT = .6364E-4
MEAN_MOTION_DDOT = 0

CCSDS_OMM_VERS = 2.0
CREATION_DATE  = 
ORIGINATOR     = 

OBJECT_NAME    = SL-14 R/B
OBJECT_ID      = 1982-092B
CENTER_NAME    = EARTH
REF_FRAME      = TEME
TIME_SYSTEM    = UTC
MEAN_ELEMENT_THEORY = SGP/SGP4

EPOCH          = 2025-12-22T02:44:58.667424
MEAN_MOTION    = 14.86564188
ECCENTRICITY   = .00198804
INCLINATION    = 82.5674
RA_OF_ASC_NODE = 213.9444
ARG_OF_PERICENTER = 194.5690
MEAN_ANOMALY   = 282.5882

EPHEMERIS_TYPE = 0
CLASSIFICATION_TYPE = U
NORAD_CAT_ID   = 13553
ELEMENT_SET_NO = 999
REV_AT_EPOCH   = 31740
BSTAR          = .47126897E-4
MEAN_MOTION_DOT = .443E-5
MEAN_MOTION_DDOT = 0

CCSDS_OMM_VERS = 2.0
CREATION_DATE  = 
ORIGINATOR     = 

OBJECT_NAME    = SL-3 R/B
OBJECT_ID      = 1983-010B
CENTER_NAME    = EARTH
REF_FRAME      = TEME
TIME_SYSTEM    = UTC
MEAN_ELEMENT_THEORY = SGP/SGP4

EPOCH          = 2025-12-22T07:13:50.383776
MEAN_MOTION    = 15.43701060
ECCENTRICITY   = .00166665
INCLINATION    = 81.1052
RA_OF_ASC_NODE = 96.9466
ARG_OF_PERICENTER = 317.2370
MEAN_ANOMALY   = 42.7575

EPHEMERIS_TYPE = 0
CLASSIFICATION_TYPE = U
NORAD_CAT_ID   = 13819
ELEMENT_SET_NO = 999
REV_AT_EPOCH   = 34599
BSTAR          = .34530484E-3
MEAN_MOTION_DOT = .15697E-3
MEAN_MOTION_DDOT = 0

CCSDS_OMM_VERS = 2.0
CREATION_DATE  = 
ORIGINATOR     = 

OBJECT_NAME    = SL-3 R/B
OBJECT_ID      = 1983-075B
CENTER_NAME    = EARTH
REF_FRAME      = TEME
TIME_SYSTEM    = UTC
MEAN_ELEMENT_THEORY = SGP/SGP4

EPOCH          = 2025-12-22T05:34:13.124640
MEAN_MOTION    = 15.36313909
ECCENTRICITY   = .00237382
INCLINATION    = 97.6104
RA_OF_ASC_NODE = 353.0350
ARG_OF_PERICENTER = 142.3929
MEAN_ANOMALY   = 217.8980

EPHEMERIS_TYPE = 0
CLASSIFICATION_TYPE = U
NORAD_CAT_ID   = 14208
ELEMENT_SET_NO = 999
REV_AT_EPOCH   = 31825
BSTAR          = .30516788E-3
MEAN_MOTION_DOT = .10822E-3
MEAN_MOTION_DDOT = 0

CCSDS_OMM_VERS = 2.0
CREATION_DATE  = 
ORIGINATOR     = 

OBJECT_NAME    = COSMOS 1536
OBJECT_ID      = 1984-013A
CENTER_NAME    = EARTH
REF_FRAME      = TEME
TIME_SYSTEM    = UTC
MEAN_ELEMENT_THEORY = SGP/SGP4

EPOCH          = 2025-12-22T06:28:55.793280
MEAN_MOTION    = 15.22622235
ECCENTRICITY   = .00142751
INCLINATION    = 82.5441
RA_OF_ASC_NODE = 184.7121
ARG_OF_PERICENTER = 190.1614
MEAN_ANOMALY   = 169.9337

EPHEMERIS_TYPE = 0
CLASSIFICATION_TYPE = U
NORAD_CAT_ID   = 14699
ELEMENT_SET_NO = 999
REV_AT_EPOCH   = 26083
BSTAR          = .29710751E-3
MEAN_MOTION_DOT = .6958E-4
MEAN_MOTION_DDOT = 0

CCSDS_OMM_VERS = 2.0
CREATION_DATE  = 
ORIGINATOR     = 

OBJECT_NAME    = SL-14 R/B
OBJECT_ID      = 1984-027B
CENTER_NAME    = EARTH
REF_FRAME      = TEME
TIME_SYSTEM    = UTC
MEAN_ELEMENT_THEORY = SGP/SGP4

EPOCH          = 2025-12-22T06:03:58.788000
MEAN_MOTION    = 14.85884069
ECCENTRICITY   = .00167269
INCLINATION    = 82.5420
RA_OF_ASC_NODE = 317.6346
ARG_OF_PERICENTER = 226.5335
MEAN_ANOMALY   = 133.4492

EPHEMERIS_TYPE = 0
CLASSIFICATION_TYPE = U
NORAD_CAT_ID   = 14820
ELEMENT_SET_NO = 999
REV_AT_EPOCH   = 23613
BSTAR          = .5438634E-4
MEAN_MOTION_DOT = .499E-5
MEAN_MOTION_DDOT = 0

CCSDS_OMM_VERS = 2.0
CREATION_DATE  = 
ORIGINATOR     = 

OBJECT_NAME    = SL-8 R/B
OBJECT_ID      = 1985-006B
CENTER_NAME    = EARTH
REF_FRAME      = TEME
TIME_SYSTEM    = UTC
MEAN_ELEMENT_THEORY = SGP/SGP4

EPOCH          = 2025-12-22T06:51:21.763584
MEAN_MOTION    = 14.37726669
ECCENTRICITY   = .0019101
INCLINATION    = 74.0461
RA_OF_ASC_NODE = 43.5721
ARG_OF_PERICENTER = 333.7643
MEAN_ANOMALY   = 95.2453

EPHEMERIS_TYPE = 0
CLASSIFICATION_TYPE = U
NORAD_CAT_ID   = 15483
ELEMENT_SET_NO = 999
REV_AT_EPOCH   = 14290
BSTAR          = .94534659E-4
MEAN_MOTION_DOT = .259E-5
MEAN_MOTION_DDOT = 0

CCSDS_OMM_VERS = 2.0
CREATION_DATE  = 
ORIGINATOR     = 

OBJECT_NAME    = SL-12 R/B(2)
OBJECT_ID      = 1985-042D
CENTER_NAME    = EARTH
REF_FRAME      = TEME
TIME_SYSTEM    = UTC
MEAN_ELEMENT_THEORY = SGP/SGP4

EPOCH          = 2025-12-21T21:26:25.643040
MEAN_MOTION    = 14.21954619
ECCENTRICITY   = .00373769
INCLINATION    = 71.1074
RA_OF_ASC_NODE = 252.0824
ARG_OF_PERICENTER = 248.0368
MEAN_ANOMALY   = 184.8329

EPHEMERIS_TYPE = 0
CLASSIFICATION_TYPE = U
NORAD_CAT_ID   = 15772
ELEMENT_SET_NO = 999
REV_AT_EPOCH   = 10333
BSTAR          = .63010772E-4
MEAN_MOTION_DOT = .92E-6
MEAN_MOTION_DDOT = 0

CCSDS_OMM_VERS = 2.0
CREATION_DATE  = 
ORIGINATOR     = 

OBJECT_NAME    = SL-14 R/B
OBJECT_ID      = 1985-069B
CENTER_NAME    = EARTH
REF_FRAME      = TEME
TIME_SYSTEM    = UTC
MEAN_ELEMENT_THEORY = SGP/SGP4

EPOCH          = 2025-12-21T17:20:29.490720
MEAN_MOTION    = 14.86334034
ECCENTRICITY   = .00203416
INCLINATION    = 82.5273
RA_OF_ASC_NODE = 98.2585
ARG_OF_PERICENTER = 90.8975
MEAN_ANOMALY   = 269.4573

EPHEMERIS_TYPE = 0
CLASSIFICATION_TYPE = U
NORAD_CAT_ID   = 15945
ELEMENT_SET_NO = 999
REV_AT_EPOCH   = 16125
BSTAR          = .47572902E-4
MEAN_MOTION_DOT = .445E-5
MEAN_MOTION_DDOT = 0

CCSDS_OMM_VERS = 2.0
CREATION_DATE  = 
ORIGINATOR     = 

OBJECT_NAME    = SL-16 R/B
OBJECT_ID      = 1985-097B
CENTER_NAME    = EARTH
REF_FRAME      = TEME
TIME_SYSTEM    = UTC
MEAN_ELEMENT_THEORY = SGP/SGP4

EPOCH          = 2025-12-22T04:15:52.867872
MEAN_MOTION    = 14.16587872
ECCENTRICITY   = .00073261
INCLINATION    = 71.0038
RA_OF_ASC_NODE = 303.7333
ARG_OF_PERICENTER = 355.7060
MEAN_ANOMALY   = 99.1411

EPHEMERIS_TYPE = 0
CLASSIFICATION_TYPE = U
NORAD_CAT_ID   = 16182
ELEMENT_SET_NO = 999
REV_AT_EPOCH   = 7625
BSTAR          = -.16142649E-4
MEAN_MOTION_DOT = -.8E-6
MEAN_MOTION_DDOT = 0

CCSDS_OMM_VERS = 2.0
CREATION_DATE  = 
ORIGINATOR     = 

OBJECT_NAME    = SL-14 R/B
OBJECT_ID      = 1986-006B
CENTER_NAME    = EARTH
REF_FRAME      = TEME
TIME_SYSTEM    = UTC
MEAN_ELEMENT_THEORY = SGP/SGP4

EPOCH          = 2025-12-21T23:43:01.846848
MEAN_MOTION    = 14.86682850
ECCENTRICITY   = .00769712
INCLINATION    = 82.5268
RA_OF_ASC_NODE = 332.8484
ARG_OF_PERICENTER = 169.0664
MEAN_ANOMALY   = 191.2250

EPHEMERIS_TYPE = 0
CLASSIFICATION_TYPE = U
NORAD_CAT_ID   = 16496
ELEMENT_SET_NO = 999
REV_AT_EPOCH   = 13766
BSTAR          = .55344748E-4
MEAN_MOTION_DOT = .546E-5
MEAN_MOTION_DDOT = 0

CCSDS_OMM_VERS = 2.0
CREATION_DATE  = 
ORIGINATOR     = 

OBJECT_NAME    = COSMOS 1743
OBJECT_ID      = 1986-034A
CENTER_NAME    = EARTH
REF_FRAME      = TEME
TIME_SYSTEM    = UTC
MEAN_ELEMENT_THEORY = SGP/SGP4

EPOCH          = 2025-12-22T04:39:45.580320
MEAN_MOTION    = 15.52654538
ECCENTRICITY   = .00049279
INCLINATION    = 82.5347
RA_OF_ASC_NODE = 154.7677
ARG_OF_PERICENTER = 212.7480
MEAN_ANOMALY   = 147.3468

EPHEMERIS_TYPE = 0
CLASSIFICATION_TYPE = U
NORAD_CAT_ID   = 16719
ELEMENT_SET_NO = 999
REV_AT_EPOCH   = 16820
BSTAR          = .54872222E-3
MEAN_MOTION_DOT = .33921E-3
MEAN_MOTION_DDOT = 0

