SL-3 R/B                
1 13403U 82079B   25356.26912305  .00006364  00000+0  26144-3 0  9994
2 13403  81.1481 284.4276 0026985  68.4770 291.9335 15.23693454365908
SL-14 R/B               
1 13553U 82092B   25356.11456791  .00000443  00000+0  47127-4 0  9998
2 13553  82.5674 213.9444 0019880 194.5690 282.5882 14.86564188317409
SL-3 R/B                
1 13819U 83010B   25356.30127759  .00015697  00000+0  34530-3 0  9994
2 13819  81.1052  96.9466 0016666 317.2370  42.7575 15.43701060345996
SL-3 R/B                
1 14208U 83075B   25356.23209635  .00010822  00000+0  30517-3 0  9990
2 14208  97.6104 353.0350 0023738 142.3929 217.8980 15.36313909318250
COSMOS 1536             
1 14699U 84013A   25356.27009020  .00006958  00000+0  29711-3 0  9996
2 14699  82.5441 184.7121 0014275 190.1614 169.9337 15.22622235260837
SL-14 R/B               
1 14820U 84027B   25356.25276375  .00000499  00000+0  54386-4 0  9995
2 14820  82.5420 317.6346 0016726 226.5335 133.4492 14.85884069236130
SL-8 R/B                
1 15483U 85006B   25356.28566856  .00000259  00000+0  94535-4 0  9992
2 15483  74.0461  43.5721 0019101 333.7643  95.2453 14.37726669142903
SL-12 R/B(2)            
1 15772U 85042D   25355.89335235  .00000092  00000+0  63011-4 0  9994
2 15772  71.1074 252.0824 0037376 248.0368 184.8329 14.21954619103331
SL-14 R/B               
1 15945U 85069B   25355.72256355  .00000445  00000+0  47573-4 0  9999
2 15945  82.5273  98.2585 0020341  90.8975 269.4573 14.86334034161255
SL-16 R/B               
1 16182U 85097B   25356.17769523 -.00000080  00000+0 -16143-4 0  9996
2 16182  71.0038 303.7333 0007326 355.7060  99.1411 14.16587872 76259
SL-14 R/B               
1 16496U 86006B   25355.98821582  .00000546  00000+0  55345-4 0  9999
2 16496  82.5268 332.8484 0076971 169.0664 191.2250 14.86682850137664
COSMOS 1743             
1 16719U 86034A   25356.19427755  .00033921  00000+0  54872-3 0  9992
2 16719  82.5347 154.7677 0004927 212.7480 147.3468 15.52654538168202
